IRIDIUM 36              
1 24967U 97056C   25034.08007935  .00001045  00000+0  34362-3 0  9991
2 24967  86.3941 229.2839 0002250  90.5532 269.5923 14.37389637432959
IRIDIUM 39              
1 25042U 97069D   25033.61204759  .00001289  00000+0  33488-3 0  9999
2 25042  86.3880 268.8382 0019441  41.1278 319.1386 14.48876704429732
IRIDIUM 38              
1 25043U 97069E   25034.21951959  .00000979  00000+0  31819-3 0  9999
2 25043  86.3949 289.5479 0002742 128.0349 232.1096 14.37898644426965
IRIDIUM 42              
1 25077U 97077A   25033.71357682  .00000912  00000+0  30653-3 0  9994
2 25077  86.3964 295.7675 0001955 103.8927 256.2487 14.36151203421894
IRIDIUM 44              
1 25078U 97077B   25033.54400422  .00000966  00000+0  30042-3 0  9998
2 25078  86.3935 278.1070 0003853  97.4378 262.7259 14.40020236424320
IRIDIUM 45              
1 25104U 97082A   25034.21773692  .00024183  00000+0  10027-2 0  9998
2 25104  86.3607 112.6483 0132926 111.4820 250.0656 15.15925355431956
IRIDIUM 24              
1 25105U 97082B   25034.31415968  .00001257  00000+0  37809-3 0  9994
2 25105  86.3951 137.0789 0012426 151.9321 208.2552 14.41863842424172
IRIDIUM 51              
1 25262U 98018A   25033.67211495  .00040973  00000+0  12268-2 0  9994
2 25262  86.3898 121.8668 0107908  44.1307 316.8486 15.28689892426407
